{
  "type": "FeatureCollection",
  "features": [
    {
      "type": "Feature",
      "properties": {
        "norad_id": 34314,
        "name": "COSMOS 2251 DEB",
        "group": "cosmos-2251-debris",
        "lat": 56.51444831664752,
        "lon": -31.646379317280797,
        "alt_km": 755.8025512828426,
        "timestamp": "2025-12-15T22:44:29.324258+00:00",
        "meta_object_name": "COSMOS 2251 DEB",
        "meta_object_id": "1993-036NL",
        "meta_epoch": "2025-12-15T07:56:58.607232",
        "meta_mean_motion": 14.17429585,
        "meta_eccentricity": 0.01029327,
        "meta_inclination": 74.0057,
        "meta_ra_of_asc_node": 303.7584,
        "meta_arg_of_pericenter": 48.8159,
        "meta_mean_anomaly": 107.4412,
        "meta_ephemeris_type": 0,
        "meta_classification_type": "U",
        "meta_norad_cat_id": 34314,
        "meta_element_set_no": 999,
        "meta_rev_at_epoch": 86694,
        "meta_bstar": 0.00056277571,
        "meta_mean_motion_dot": 1.176e-05,
        "meta_mean_motion_ddot": 0,
        "tle_line1": "1 34314U 93036NL  25349.33123388  .00001176  00000+0  56278-3 0  9995",
        "tle_line2": "2 34314  74.0057 303.7584 0102932  48.8159 107.4412 14.17429585866940"
      },
      "geometry": {
        "type": "Point",
        "coordinates": [
          -31.646379317280797,
          56.51444831664752
        ]
      }
    },
    {
      "type": "Feature",
      "properties": {
        "norad_id": 34316,
        "name": "COSMOS 2251 DEB",
        "group": "cosmos-2251-debris",
        "lat": 29.065316836707364,
        "lon": -20.39983270972387,
        "alt_km": 584.6849380681324,
        "timestamp": "2025-12-15T22:44:29.324268+00:00",
        "meta_object_name": "COSMOS 2251 DEB",
        "meta_object_id": "1993-036NN",
        "meta_epoch": "2025-12-15T08:07:19.156224",
        "meta_mean_motion": 14.91915937,
        "meta_eccentricity": 0.0008623,
        "meta_inclination": 74.0647,
        "meta_ra_of_asc_node": 331.6826,
        "meta_arg_of_pericenter": 54.7084,
        "meta_mean_anomaly": 305.4904,
        "meta_ephemeris_type": 0,
        "meta_classification_type": "U",
        "meta_norad_cat_id": 34316,
        "meta_element_set_no": 999,
        "meta_rev_at_epoch": 89248,
        "meta_bstar": 0.0010221149,
        "meta_mean_motion_dot": 0.00010326,
        "meta_mean_motion_ddot": 0,
        "tle_line1": "1 34316U 93036NN  25349.33841616  .00010326  00000+0  10221-2 0  9992",
        "tle_line2": "2 34316  74.0647 331.6826 0008623  54.7084 305.4904 14.91915937892488"
      },
      "geometry": {
        "type": "Point",
        "coordinates": [
          -20.39983270972387,
          29.065316836707364
        ]
      }
    },
    {
      "type": "Feature",
      "properties": {
        "norad_id": 34317,
        "name": "COSMOS 2251 DEB",
        "group": "cosmos-2251-debris",
        "lat": 58.357981777703024,
        "lon": -177.42207822620662,
        "alt_km": 1039.4937115818675,
        "timestamp": "2025-12-15T22:44:29.324278+00:00",
        "meta_object_name": "COSMOS 2251 DEB",
        "meta_object_id": "1993-036NP",
        "meta_epoch": "2025-12-15T04:54:12.132576",
        "meta_mean_motion": 13.65123996,
        "meta_eccentricity": 0.03365997,
        "meta_inclination": 73.9246,
        "meta_ra_of_asc_node": 31.7009,
        "meta_arg_of_pericenter": 20.4824,
        "meta_mean_anomaly": 41.9423,
        "meta_ephemeris_type": 0,
        "meta_classification_type": "U",
        "meta_norad_cat_id": 34317,
        "meta_element_set_no": 999,
        "meta_rev_at_epoch": 83653,
        "meta_bstar": 0.00041700106,
        "meta_mean_motion_dot": 4.76e-06,
        "meta_mean_motion_ddot": 0,
        "tle_line1": "1 34317U 93036NP  25349.20430709  .00000476  00000+0  41700-3 0  9998",
        "tle_line2": "2 34317  73.9246  31.7009 0336599  20.4824  41.9423 13.65123996836539"
      },
      "geometry": {
        "type": "Point",
        "coordinates": [
          -177.42207822620662,
          58.357981777703024
        ]
      }
    },
    {
      "type": "Feature",
      "properties": {
        "norad_id": 34321,
        "name": "COSMOS 2251 DEB",
        "group": "cosmos-2251-debris",
        "lat": 53.9084464376808,
        "lon": 173.46950631023122,
        "alt_km": 728.3043429394465,
        "timestamp": "2025-12-15T22:44:29.324288+00:00",
        "meta_object_name": "COSMOS 2251 DEB",
        "meta_object_id": "1993-036NT",
        "meta_epoch": "2025-12-15T05:05:16.641888",
        "meta_mean_motion": 14.50067091,
        "meta_eccentricity": 0.00158512,
        "meta_inclination": 74.0276,
        "meta_ra_of_asc_node": 151.7166,
        "meta_arg_of_pericenter": 281.1122,
        "meta_mean_anomaly": 257.764,
        "meta_ephemeris_type": 0,
        "meta_classification_type": "U",
        "meta_norad_cat_id": 34321,
        "meta_element_set_no": 999,
        "meta_rev_at_epoch": 88522,
        "meta_bstar": 0.00048119083,
        "meta_mean_motion_dot": 1.842e-05,
        "meta_mean_motion_ddot": 0,
        "tle_line1": "1 34321U 93036NT  25349.21199817  .00001842  00000+0  48119-3 0  9995",
        "tle_line2": "2 34321  74.0276 151.7166 0015851 281.1122 257.7640 14.50067091885224"
      },
      "geometry": {
        "type": "Point",
        "coordinates": [
          173.46950631023122,
          53.9084464376808
        ]
      }
    },
    {
      "type": "Feature",
      "properties": {
        "norad_id": 34323,
        "name": "COSMOS 2251 DEB",
        "group": "cosmos-2251-debris",
        "lat": -5.624518239945691,
        "lon": 115.19390488392004,
        "alt_km": 689.9631021074738,
        "timestamp": "2025-12-15T22:44:29.324298+00:00",
        "meta_object_name": "COSMOS 2251 DEB",
        "meta_object_id": "1993-036NV",
        "meta_epoch": "2025-12-15T08:14:45.329280",
        "meta_mean_motion": 14.74525154,
        "meta_eccentricity": 0.00587389,
        "meta_inclination": 73.9524,
        "meta_ra_of_asc_node": 118.0033,
        "meta_arg_of_pericenter": 161.3847,
        "meta_mean_anomaly": 228.2502,
        "meta_ephemeris_type": 0,
        "meta_classification_type": "U",
        "meta_norad_cat_id": 34323,
        "meta_element_set_no": 999,
        "meta_rev_at_epoch": 88478,
        "meta_bstar": 0.0015079729,
        "meta_mean_motion_dot": 0.00010298,
        "meta_mean_motion_ddot": 0,
        "tle_line1": "1 34323U 93036NV  25349.34358020  .00010298  00000+0  15080-2 0  9999",
        "tle_line2": "2 34323  73.9524 118.0033 0058738 161.3847 228.2502 14.74525154884788"
      },
      "geometry": {
        "type": "Point",
        "coordinates": [
          115.19390488392004,
          -5.624518239945691
        ]
      }
    },
    {
      "type": "Feature",
      "properties": {
        "norad_id": 34325,
        "name": "COSMOS 2251 DEB",
        "group": "cosmos-2251-debris",
        "lat": 56.76136885320609,
        "lon": -19.04762598025903,
        "alt_km": 856.3306186546961,
        "timestamp": "2025-12-15T22:44:29.324308+00:00",
        "meta_object_name": "COSMOS 2251 DEB",
        "meta_object_id": "1993-036NX",
        "meta_epoch": "2025-12-15T07:38:16.369728",
        "meta_mean_motion": 14.04489329,
        "meta_eccentricity": 0.01920341,
        "meta_inclination": 73.8708,
        "meta_ra_of_asc_node": 188.2638,
        "meta_arg_of_pericenter": 205.0803,
        "meta_mean_anomaly": 335.8125,
        "meta_ephemeris_type": 0,
        "meta_classification_type": "U",
        "meta_norad_cat_id": 34325,
        "meta_element_set_no": 999,
        "meta_rev_at_epoch": 85551,
        "meta_bstar": 0.0013720184,
        "meta_mean_motion_dot": 2.555e-05,
        "meta_mean_motion_ddot": 0,
        "tle_line1": "1 34325U 93036NX  25349.31824502  .00002555  00000+0  13720-2 0  9997",
        "tle_line2": "2 34325  73.8708 188.2638 0192034 205.0803 335.8125 14.04489329855510"
      },
      "geometry": {
        "type": "Point",
        "coordinates": [
          -19.04762598025903,
          56.76136885320609
        ]
      }
    },
    {
      "type": "Feature",
      "properties": {
        "norad_id": 34327,
        "name": "COSMOS 2251 DEB",
        "group": "cosmos-2251-debris",
        "lat": -13.895113055260149,
        "lon": -10.47025171061029,
        "alt_km": 623.7394728087393,
        "timestamp": "2025-12-15T22:44:29.324319+00:00",
        "meta_object_name": "COSMOS 2251 DEB",
        "meta_object_id": "1993-036NZ",
        "meta_epoch": "2025-12-14T18:30:59.487840",
        "meta_mean_motion": 14.89236536,
        "meta_eccentricity": 0.00329409,
        "meta_inclination": 73.9935,
        "meta_ra_of_asc_node": 167.8129,
        "meta_arg_of_pericenter": 343.7633,
        "meta_mean_anomaly": 28.3563,
        "meta_ephemeris_type": 0,
        "meta_classification_type": "U",
        "meta_norad_cat_id": 34327,
        "meta_element_set_no": 999,
        "meta_rev_at_epoch": 89538,
        "meta_bstar": 0.0009933816,
        "meta_mean_motion_dot": 9.472e-05,
        "meta_mean_motion_ddot": 0,
        "tle_line1": "1 34327U 93036NZ  25348.77152185  .00009472  00000+0  99338-3 0  9994",
        "tle_line2": "2 34327  73.9935 167.8129 0032940 343.7633  28.3563 14.89236536895385"
      },
      "geometry": {
        "type": "Point",
        "coordinates": [
          -10.47025171061029,
          -13.895113055260149
        ]
      }
    }
  ]
}